{
  "type": "FeatureCollection",
  "features": [
    {
      "type": "Feature",
      "properties": {
        "norad_id": 31612,
        "name": "FENGYUN 1C DEB",
        "group": "fengyun-1c-debris",
        "lat": -47.442180381169855,
        "lon": 65.95112640753207,
        "alt_km": 381.04951313089896,
        "timestamp": "2025-12-09T09:46:47.929376+00:00",
        "meta_object_name": "FENGYUN 1C DEB",
        "meta_object_id": "1999-025BZS",
        "meta_epoch": "2025-11-26T23:13:26.859936",
        "meta_mean_motion": 15.63030412,
        "meta_eccentricity": 0.0034124,
        "meta_inclination": 100.3408,
        "meta_ra_of_asc_node": 239.2079,
        "meta_arg_of_pericenter": 150.8693,
        "meta_mean_anomaly": 209.4468,
        "meta_ephemeris_type": 0,
        "meta_classification_type": "U",
        "meta_norad_cat_id": 31612,
        "meta_element_set_no": 999,
        "meta_rev_at_epoch": 99915,
        "meta_bstar": 0.0020210875,
        "meta_mean_motion_dot": 0.00192851,
        "meta_mean_motion_ddot": 0,
        "tle_line1": "1 31612U 99025BZS 25330.96767199  .00192851  00000+0  20211-2 0  9998",
        "tle_line2": "2 31612 100.3408 239.2079 0034124 150.8693 209.4468 15.63030412999150"
      },
      "geometry": {
        "type": "Point",
        "coordinates": [
          65.95112640753207,
          -47.442180381169855
        ]
      }
    },
    {
      "type": "Feature",
      "properties": {
        "norad_id": 31613,
        "name": "FENGYUN 1C DEB",
        "group": "fengyun-1c-debris",
        "lat": 24.44786148249479,
        "lon": 167.02950729843954,
        "alt_km": 1014.002717408046,
        "timestamp": "2025-12-09T09:46:47.929387+00:00",
        "meta_object_name": "FENGYUN 1C DEB",
        "meta_object_id": "1999-025BZT",
        "meta_epoch": "2025-12-07T06:34:51.947904",
        "meta_mean_motion": 13.63418054,
        "meta_eccentricity": 0.03428009,
        "meta_inclination": 98.4242,
        "meta_ra_of_asc_node": 169.0409,
        "meta_arg_of_pericenter": 120.5223,
        "meta_mean_anomaly": 243.0233,
        "meta_ephemeris_type": 0,
        "meta_classification_type": "U",
        "meta_norad_cat_id": 31613,
        "meta_element_set_no": 999,
        "meta_rev_at_epoch": 91687,
        "meta_bstar": 0.0020758849,
        "meta_mean_motion_dot": 2.402e-05,
        "meta_mean_motion_ddot": 0,
        "tle_line1": "1 31613U 99025BZT 25341.27421236  .00002402  00000+0  20759-2 0  9993",
        "tle_line2": "2 31613  98.4242 169.0409 0342800 120.5223 243.0233 13.63418054916879"
      },
      "geometry": {
        "type": "Point",
        "coordinates": [
          167.02950729843954,
          24.44786148249479
        ]
      }
    },
    {
      "type": "Feature",
      "properties": {
        "norad_id": 31614,
        "name": "FENGYUN 1C DEB",
        "group": "fengyun-1c-debris",
        "lat": -80.59385681735063,
        "lon": -38.75906892149174,
        "alt_km": 587.8295949933454,
        "timestamp": "2025-12-09T09:46:47.929398+00:00",
        "meta_object_name": "FENGYUN 1C DEB",
        "meta_object_id": "1999-025BZU",
        "meta_epoch": "2025-12-08T16:49:17.675328",
        "meta_mean_motion": 14.96292226,
        "meta_eccentricity": 0.0022411,
        "meta_inclination": 98.9738,
        "meta_ra_of_asc_node": 247.8951,
        "meta_arg_of_pericenter": 15.0423,
        "meta_mean_anomaly": 53.8986,
        "meta_ephemeris_type": 0,
        "meta_classification_type": "U",
        "meta_norad_cat_id": 31614,
        "meta_element_set_no": 999,
        "meta_rev_at_epoch": 96369,
        "meta_bstar": 0.00990619,
        "meta_mean_motion_dot": 0.00114212,
        "meta_mean_motion_ddot": 0,
        "tle_line1": "1 31614U 99025BZU 25342.70089902  .00114212  00000+0  99062-2 0  9999",
        "tle_line2": "2 31614  98.9738 247.8951 0022411  15.0423  53.8986 14.96292226963697"
      },
      "geometry": {
        "type": "Point",
        "coordinates": [
          -38.75906892149174,
          -80.59385681735063
        ]
      }
    },
    {
      "type": "Feature",
      "properties": {
        "norad_id": 31615,
        "name": "FENGYUN 1C DEB",
        "group": "fengyun-1c-debris",
        "lat": 57.83534353607815,
        "lon": -130.5317798692946,
        "alt_km": 875.1647753994621,
        "timestamp": "2025-12-09T09:46:47.929412+00:00",
        "meta_object_name": "FENGYUN 1C DEB",
        "meta_object_id": "1999-025BZV",
        "meta_epoch": "2025-12-08T09:47:37.615200",
        "meta_mean_motion": 14.35212582,
        "meta_eccentricity": 0.01657905,
        "meta_inclination": 99.137,
        "meta_ra_of_asc_node": 33.5823,
        "meta_arg_of_pericenter": 329.5001,
        "meta_mean_anomaly": 29.6619,
        "meta_ephemeris_type": 0,
        "meta_classification_type": "U",
        "meta_norad_cat_id": 31615,
        "meta_element_set_no": 999,
        "meta_rev_at_epoch": 65216,
        "meta_bstar": 0.0036834111,
        "meta_mean_motion_dot": 0.00012276,
        "meta_mean_motion_ddot": 0,
        "tle_line1": "1 31615U 99025BZV 25342.40807425  .00012276  00000+0  36834-2 0  9990",
        "tle_line2": "2 31615  99.1370  33.5823 0165790 329.5001  29.6619 14.35212582652165"
      },
      "geometry": {
        "type": "Point",
        "coordinates": [
          -130.5317798692946,
          57.83534353607815
        ]
      }
    },
    {
      "type": "Feature",
      "properties": {
        "norad_id": 31618,
        "name": "FENGYUN 1C DEB",
        "group": "fengyun-1c-debris",
        "lat": -3.573494770133485,
        "lon": 126.70343388934748,
        "alt_km": 719.3320609640714,
        "timestamp": "2025-12-09T09:46:47.929431+00:00",
        "meta_object_name": "FENGYUN 1C DEB",
        "meta_object_id": "1999-025BZY",
        "meta_epoch": "2025-12-07T15:33:01.488960",
        "meta_mean_motion": 14.21009291,
        "meta_eccentricity": 0.01572194,
        "meta_inclination": 99.4425,
        "meta_ra_of_asc_node": 124.228,
        "meta_arg_of_pericenter": 340.4885,
        "meta_mean_anomaly": 19.0314,
        "meta_ephemeris_type": 0,
        "meta_classification_type": "U",
        "meta_norad_cat_id": 31618,
        "meta_element_set_no": 999,
        "meta_rev_at_epoch": 70192,
        "meta_bstar": 0.00047528685,
        "meta_mean_motion_dot": 1.116e-05,
        "meta_mean_motion_ddot": 0,
        "tle_line1": "1 31618U 99025BZY 25341.64793390  .00001116  00000+0  47529-3 0  9998",
        "tle_line2": "2 31618  99.4425 124.2280 0157219 340.4885  19.0314 14.21009291701926"
      },
      "geometry": {
        "type": "Point",
        "coordinates": [
          126.70343388934748,
          -3.573494770133485
        ]
      }
    },
    {
      "type": "Feature",
      "properties": {
        "norad_id": 31619,
        "name": "FENGYUN 1C DEB",
        "group": "fengyun-1c-debris",
        "lat": -64.17266411193467,
        "lon": -23.76491790378861,
        "alt_km": 585.580568314721,
        "timestamp": "2025-12-09T09:46:47.929442+00:00",
        "meta_object_name": "FENGYUN 1C DEB",
        "meta_object_id": "1999-025BZZ",
        "meta_epoch": "2025-12-08T11:38:44.975328",
        "meta_mean_motion": 14.84920215,
        "meta_eccentricity": 0.0096486,
        "meta_inclination": 99.0726,
        "meta_ra_of_asc_node": 174.4634,
        "meta_arg_of_pericenter": 307.639,
        "meta_mean_anomaly": 51.6094,
        "meta_ephemeris_type": 0,
        "meta_classification_type": "U",
        "meta_norad_cat_id": 31619,
        "meta_element_set_no": 999,
        "meta_rev_at_epoch": 63425,
        "meta_bstar": 0.00555976,
        "meta_mean_motion_dot": 0.00051719,
        "meta_mean_motion_ddot": 0,
        "tle_line1": "1 31619U 99025BZZ 25342.48524277  .00051719  00000+0  55598-2 0  9996",
        "tle_line2": "2 31619  99.0726 174.4634 0096486 307.6390  51.6094 14.84920215634256"
      },
      "geometry": {
        "type": "Point",
        "coordinates": [
          -23.76491790378861,
          -64.17266411193467
        ]
      }
    },
    {
      "type": "Feature",
      "properties": {
        "norad_id": 31620,
        "name": "FENGYUN 1C DEB",
        "group": "fengyun-1c-debris",
        "lat": 78.56162439424848,
        "lon": 16.733066975013756,
        "alt_km": 747.4951188311261,
        "timestamp": "2025-12-09T09:46:47.929452+00:00",
        "meta_object_name": "FENGYUN 1C DEB",
        "meta_object_id": "1999-025CAA",
        "meta_epoch": "2025-12-07T23:58:44.073408",
        "meta_mean_motion": 14.37123121,
        "meta_eccentricity": 0.00207062,
        "meta_inclination": 98.8866,
        "meta_ra_of_asc_node": 65.9275,
        "meta_arg_of_pericenter": 59.0655,
        "meta_mean_anomaly": 301.2562,
        "meta_ephemeris_type": 0,
        "meta_classification_type": "U",
        "meta_norad_cat_id": 31620,
        "meta_element_set_no": 999,
        "meta_rev_at_epoch": 65776,
        "meta_bstar": 0.0029103432,
        "meta_mean_motion_dot": 8.633e-05,
        "meta_mean_motion_ddot": 0,
        "tle_line1": "1 31620U 99025CAA 25341.99912122  .00008633  00000+0  29103-2 0  9993",
        "tle_line2": "2 31620  98.8866  65.9275 0020706  59.0655 301.2562 14.37123121657763"
      },
      "geometry": {
        "type": "Point",
        "coordinates": [
          16.733066975013756,
          78.56162439424848
        ]
      }
    }
  ]
}